[{"OBJECT_NAME":"STARLINK-34280","OBJECT_ID":"2025-137A","EPOCH":"2026-03-09T22:36:04.714272","MEAN_MOTION":15.30212268,"ECCENTRICITY":0.00014065,"INCLINATION":53.159,"RA_OF_ASC_NODE":334.0621,"ARG_OF_PERICENTER":147.1912,"MEAN_ANOMALY":212.9177,"EPHEMERIS_TYPE":0,"CLASSIFICATION_TYPE":"U","NORAD_CAT_ID":64594,"ELEMENT_SET_NO":999,"REV_AT_EPOCH":4077,"BSTAR":0.00095608936,"MEAN_MOTION_DOT":0.00028075,"MEAN_MOTION_DDOT":0},{"OBJECT_NAME":"FENGYUN 1C DEB","OBJECT_ID":"1999-025ETT","EPOCH":"2026-03-07T08:30:03.670560","MEAN_MOTION":15.28888299,"ECCENTRICITY":0.00158464,"INCLINATION":99.1103,"RA_OF_ASC_NODE":112.0072,"ARG_OF_PERICENTER":201.0032,"MEAN_ANOMALY":159.0553,"EPHEMERIS_TYPE":0,"CLASSIFICATION_TYPE":"U","NORAD_CAT_ID":38726,"ELEMENT_SET_NO":999,"REV_AT_EPOCH":71135,"BSTAR":0.013792546,"MEAN_MOTION_DOT":0.00409659,"MEAN_MOTION_DDOT":0}]
